CCSDS_OEM_VERS = 1.0
CREATION_DATE  = 2017-05-11T12:05:34
ORIGINATOR     = GMAT USER

META_START
OBJECT_NAME          = MOPSSat_alt_35785_km_RAAN_270_143
OBJECT_ID            = SatId
CENTER_NAME          = Earth
REF_FRAME            = EME2000
TIME_SYSTEM          = UTC
START_TIME           = 2017-01-01T00:00:00.000
USEABLE_START_TIME   = 2017-01-01T00:00:00.000
USEABLE_STOP_TIME    = 2017-01-02T00:00:00.000
STOP_TIME            = 2017-01-02T00:00:00.000
INTERPOLATION        = Lagrange
INTERPOLATION_DEGREE = 7 
META_STOP


                                                                                   

2017-01-01T01:04:10.000   1.680619061551656e+04  -2.096381047825910e+04   2.963326240781029e+03   3.883615822669376e+00   2.118082657072068e+00   6.847488592383874e-01
2017-01-01T01:04:20.000   1.684500980662282e+04  -2.094260851181403e+04   2.970170736938339e+03   3.880221760706624e+00   2.122309330092520e+00   6.841502597438288e-01
2017-01-01T01:04:30.000   1.688379503404968e+04  -2.092136431986502e+04   2.977009243034539e+03   3.876823073281316e+00   2.126527747851311e+00   6.835508446356886e-01
2017-01-01T01:04:40.000   1.692254625181346e+04  -2.090007798489910e+04   2.983841750961278e+03   3.873419784297759e+00   2.130737907034444e+00   6.829506181301764e-01
2017-01-01T01:04:50.000   1.696126341412273e+04  -2.087874958945851e+04   2.990668252644113e+03   3.870011917639744e+00   2.134939804409324e+00   6.823495844398809e-01
2017-01-01T01:05:00.000   1.699994647533500e+04  -2.085737921616793e+04   2.997488740034870e+03   3.866599497174553e+00   2.139133436820124e+00   6.817477477744761e-01
2017-01-01T01:05:10.000   1.703859539007286e+04  -2.083596694766738e+04   3.004303205132134e+03   3.863182546742154e+00   2.143318801200023e+00   6.811451123388180e-01
2017-01-01T01:05:20.000   1.707721011271791e+04  -2.081451286689768e+04   3.011111639892017e+03   3.859761090200366e+00   2.147495894516601e+00   6.805416823409055e-01
2017-01-01T01:05:30.000   1.711579059802433e+04  -2.079301705675363e+04   3.017914036336325e+03   3.856335151369536e+00   2.151664713837598e+00   6.799374619821300e-01
2017-01-01T01:05:40.000   1.715433680088988e+04  -2.077147960021134e+04   3.024710386512209e+03   3.852904754052659e+00   2.155825256306000e+00   6.793324554608176e-01
2017-01-01T01:05:50.000   1.719284867724282e+04  -2.074990057983238e+04   3.031500682648521e+03   3.849469921956196e+00   2.159977519235564e+00   6.787266669582673e-01
2017-01-01T01:06:00.000   1.723132618315645e+04  -2.072828007825632e+04   3.038284916999701e+03   3.846030678768407e+00   2.164121500014924e+00   6.781201006525663e-01
2017-01-01T01:06:10.000   1.726976927505007e+04  -2.070661817808884e+04   3.045063081881216e+03   3.842587048141311e+00   2.168257196129130e+00   6.775127607154067e-01
2017-01-01T01:06:20.000   1.730817790918604e+04  -2.068491496217567e+04   3.051835169580862e+03   3.839139053734386e+00   2.172384605104679e+00   6.769046513197947e-01
2017-01-01T01:06:30.000   1.734655204204410e+04  -2.066317051339942e+04   3.058601172424787e+03   3.835686719181784e+00   2.176503724550169e+00   6.762957766342669e-01
2017-01-01T01:06:40.000   1.738489163031906e+04  -2.064138491467638e+04   3.065361082777079e+03   3.832230068091798e+00   2.180614552155578e+00   6.756861408227961e-01
2017-01-01T01:06:50.000   1.742319663055661e+04  -2.061955824917064e+04   3.072114892975537e+03   3.828769124080381e+00   2.184717085653558e+00   6.750757480507049e-01
2017-01-01T01:07:00.000   1.746146699964512e+04  -2.059769060000595e+04   3.078862595418400e+03   3.825303910725547e+00   2.188811322871347e+00   6.744646024766217e-01
2017-01-01T01:07:10.000   1.749970269462094e+04  -2.057578205037737e+04   3.085604182530010e+03   3.821834451584858e+00   2.192897261709799e+00   6.738527082555650e-01
2017-01-01T01:07:20.000   1.753790367353117e+04  -2.055383268305624e+04   3.092339646912937e+03   3.818360770116877e+00   2.196974900235356e+00   6.732400695250922e-01
2017-01-01T01:07:30.000   1.757606989456992e+04  -2.053184258088323e+04   3.099068981195690e+03   3.814882889759107e+00   2.201044236587438e+00   6.726266904190421e-01
2017-01-01T01:07:40.000   1.761420131627396e+04  -2.050981182665649e+04   3.105792178067199e+03   3.811400833910104e+00   2.205105268999186e+00   6.720125750643841e-01
2017-01-01T01:07:50.000   1.765229789702368e+04  -2.048774050341065e+04   3.112509230188843e+03   3.807914625973725e+00   2.209157995743438e+00   6.713977275890183e-01
2017-01-01T01:08:00.000   1.769035959541441e+04  -2.046562869420988e+04   3.119220130259909e+03   3.804424289325949e+00   2.213202415172678e+00   6.707821521159271e-01
2017-01-01T01:08:10.000   1.772838637025419e+04  -2.044347648214485e+04   3.125924871017207e+03   3.800929847314389e+00   2.217238525718291e+00   6.701658527630866e-01
2017-01-01T01:08:20.000   1.776637818020246e+04  -2.042128395055025e+04   3.132623445171356e+03   3.797431323292153e+00   2.221266325852569e+00   6.695488336494405e-01
2017-01-01T01:08:30.000   1.780433498425785e+04  -2.039905118271204e+04   3.139315845492795e+03   3.793928740571811e+00   2.225285814139664e+00   6.689310988867788e-01
2017-01-01T01:08:40.000   1.784225674156138e+04  -2.037677826198319e+04   3.146002064777082e+03   3.790422122443422e+00   2.229296989214589e+00   6.683126525829217e-01
2017-01-01T01:08:50.000   1.788014341226624e+04  -2.035446527127185e+04   3.152682095998257e+03   3.786911492093824e+00   2.233299849874998e+00   6.676934988274801e-01
2017-01-01T01:09:00.000   1.791799495666494e+04  -2.033211229355251e+04   3.159355932154927e+03   3.783396872686993e+00   2.237294394988528e+00   6.670736417060302e-01
2017-01-01T01:09:10.000   1.795581133541445e+04  -2.030971941173341e+04   3.166023566309983e+03   3.779878287342997e+00   2.241280623516443e+00   6.664530852964038e-01
2017-01-01T01:09:20.000   1.799359250892818e+04  -2.028728670900884e+04   3.172684991483382e+03   3.776355759193485e+00   2.245258534448752e+00   6.658318336784712e-01
2017-01-01T01:09:30.000   1.803133843787786e+04  -2.026481426856770e+04   3.179340200740641e+03   3.772829311335494e+00   2.249228126857377e+00   6.652098909259965e-01
2017-01-01T01:09:40.000   1.806904908308088e+04  -2.024230217365737e+04   3.185989187172974e+03   3.769298966841440e+00   2.253189399883885e+00   6.645872611083982e-01
2017-01-01T01:09:50.000   1.810672440553287e+04  -2.021975050756803e+04   3.192631943903035e+03   3.765764748756329e+00   2.257142352743010e+00   6.639639482902600e-01
2017-01-01T01:10:00.000   1.814436436644271e+04  -2.019715935360690e+04   3.199268464091093e+03   3.762226680093756e+00   2.261086984725778e+00   6.633399565306205e-01
2017-01-01T01:10:10.000   1.818196892724611e+04  -2.017452879508973e+04   3.205898740937419e+03   3.758684783834405e+00   2.265023295200725e+00   6.627152898827141e-01
2017-01-01T01:10:20.000   1.821953804974088e+04  -2.015185891526038e+04   3.212522767706148e+03   3.755139082913262e+00   2.268951283627951e+00   6.620899523917122e-01
2017-01-01T01:10:30.000   1.825707169599548e+04  -2.012914979734228e+04   3.219140537709147e+03   3.751589600227659e+00   2.272870949549091e+00   6.614639480961431e-01
2017-01-01T01:10:40.000   1.829456982834904e+04  -2.010640152453816e+04   3.225752044306014e+03   3.748036358637064e+00   2.276782292587112e+00   6.608372810278543e-01
2017-01-01T01:10:50.000   1.833203240949901e+04  -2.008361417997341e+04   3.232357280919549e+03   3.744479380954222e+00   2.280685312455003e+00   6.602099552104508e-01
2017-01-01T01:11:00.000   1.836945940236775e+04  -2.006078784677783e+04   3.238956241012209e+03   3.740918689957732e+00   2.284580008941755e+00   6.595819746615122e-01
2017-01-01T01:11:10.000   1.840685077008896e+04  -2.003792260809347e+04   3.245548918083739e+03   3.737354308393118e+00   2.288466381910718e+00   6.589533433927840e-01
2017-01-01T01:11:20.000   1.844420647596789e+04  -2.001501854709414e+04   3.252135305664133e+03   3.733786258975924e+00   2.292344431294907e+00   6.583240654107213e-01
2017-01-01T01:11:30.000   1.848152648345376e+04  -1.999207574700587e+04   3.258715397308792e+03   3.730214564394603e+00   2.296214157094245e+00   6.576941447169974e-01
2017-01-01T01:11:40.000   1.851881075624811e+04  -1.996909429103757e+04   3.265289186617612e+03   3.726639247299669e+00   2.300075559386381e+00   6.570635853065937e-01
2017-01-01T01:11:50.000   1.855605925781669e+04  -1.994607426268682e+04   3.271856667148933e+03   3.723060330350938e+00   2.303928638276349e+00   6.564323911761287e-01
2017-01-01T01:12:00.000   1.859327195198096e+04  -1.992301574536850e+04   3.278417832523821e+03   3.719477836159852e+00   2.307773393957101e+00   6.558005663136877e-01
2017-01-01T01:12:10.000   1.863044880269720e+04  -1.989991882255137e+04   3.284972676387133e+03   3.715891787310587e+00   2.311609826686505e+00   6.551681147025437e-01
2017-01-01T01:12:20.000   1.866758977491176e+04  -1.987678357722656e+04   3.291521192558298e+03   3.712302206277369e+00   2.315437936875380e+00   6.545350403065774e-01
2017-01-01T01:12:30.000   1.870469483370697e+04  -1.985361009243597e+04   3.298063374880735e+03   3.708709115506467e+00   2.319257724999004e+00   6.539013470847349e-01
2017-01-01T01:12:40.000   1.874176394449484e+04  -1.983039845115232e+04   3.304599217256006e+03   3.705112537397409e+00   2.323069191616960e+00   6.532670389877174e-01
2017-01-01T01:12:50.000   1.877879707253167e+04  -1.980714873657377e+04   3.311128713558228e+03   3.701512494348866e+00   2.326872337322316e+00   6.526321199660722e-01
2017-01-01T01:13:00.000   1.881579418327919e+04  -1.978386103190541e+04   3.317651857697757e+03   3.697909008724344e+00   2.330667162779154e+00   6.519965939641421e-01
2017-01-01T01:13:10.000   1.885275524240220e+04  -1.976053542035647e+04   3.324168643620764e+03   3.694302102851783e+00   2.334453668721819e+00   6.513604649199949e-01
